1 43013U 17073A   26155.73669523  .00000077  00000+0  57419-4 0  9992
2 43013  98.7769  95.3101 0000621  37.0568 323.0651 14.19509363442704
